[ {"OBJECT_NAME": "0 STARLINK-31402", "OBJECT_ID": "59320", "TLE_LINE1": "1 59320U 24057A   26204.10414646  .00104215  00000-0  30176-2 0  9999", "TLE_LINE2": "2 59320  42.9984  92.6878 0009093 221.2475 138.7693 15.34472931131103"}, {"OBJECT_NAME": "0 STARLINK-31578", "OBJECT_ID": "59321", "TLE_LINE1": "1 59321U 24057B   26204.88615750  .00000407  00000-0  24329-4 0  9997", "TLE_LINE2": "2 59321  43.0031 137.4683 0001356 263.5582  96.5115 15.27571651130675"}, {"OBJECT_NAME": "0 STARLINK-31530", "OBJECT_ID": "59322", "TLE_LINE1": "1 59322U 24057C   26204.91668981  .00134024  00000-0  81161-3 0  9995", "TLE_LINE2": "2 59322  42.9846  96.5892 0027285 222.6799 100.1938 15.75875094  5880"}, {"OBJECT_NAME": "0 STARLINK-31565", "OBJECT_ID": "59323", "TLE_LINE1": "1 59323U 24057D   26203.27508293  .00001078  00000-0  48674-4 0  9998", "TLE_LINE2": "2 59323  43.0016 154.6642 0001154 246.1946 113.8785 15.27583999130330"}, {"OBJECT_NAME": "0 STARLINK-31570", "OBJECT_ID": "59324", "TLE_LINE1": "1 59324U 24057E   26204.88373722 -.00000506  00000-0 -88654-5 0  9994", "TLE_LINE2": "2 59324  43.0036 138.3138 0001517 280.2480  79.8201 15.27573917130666"}, {"OBJECT_NAME": "0 STARLINK-31611", "OBJECT_ID": "59325", "TLE_LINE1": "1 59325U 24057F   26204.16576436  .00000673  00000-0  33998-4 0  9996", "TLE_LINE2": "2 59325  43.0031 142.3871 0001443 267.1287  92.9399 15.27581239130556"}, {"OBJECT_NAME": "0 STARLINK-31632", "OBJECT_ID": "59326", "TLE_LINE1": "1 59326U 24057G   26204.85416611 -.00001228  00000-0 -35096-4 0  9991", "TLE_LINE2": "2 59326  43.0057 149.3368 0002088 264.4472  95.6142 15.27575904130531"}, {"OBJECT_NAME": "0 STARLINK-31599", "OBJECT_ID": "59327", "TLE_LINE1": "1 59327U 24057H   26204.83747838 -.00000420  00000-0 -57605-5 0  9992", "TLE_LINE2": "2 59327  42.9999 137.9641 0000750 273.7460  86.3306 15.27573676130663"}, {"OBJECT_NAME": "0 STARLINK-31614", "OBJECT_ID": "59328", "TLE_LINE1": "1 59328U 24057J   26204.86189492  .00000594  00000-0  31123-4 0  9998", "TLE_LINE2": "2 59328  43.0046 138.1532 0001116 252.4368 107.6362 15.27568425130664"}, {"OBJECT_NAME": "0 STARLINK-31493", "OBJECT_ID": "59329", "TLE_LINE1": "1 59329U 24057K   26204.25670963 -.00000571  00000-0 -11236-4 0  9990", "TLE_LINE2": "2 59329  43.0003 141.3433 0000553 252.3810 107.6981 15.27572691130576"}, {"OBJECT_NAME": "0 STARLINK-31634", "OBJECT_ID": "59330", "TLE_LINE1": "1 59330U 24057L   26204.93627357 -.00000015  00000-0  89997-5 0  9998", "TLE_LINE2": "2 59330  43.0035 137.8414 0001289 263.3657  96.7048 15.27566078130675"}, {"OBJECT_NAME": "0 STARLINK-31633", "OBJECT_ID": "59331", "TLE_LINE1": "1 59331U 24057M   26204.54138101  .00000482  00000-0  27045-4 0  9992", "TLE_LINE2": "2 59331  43.0060 140.0402 0000939 282.8942  77.1804 15.27579264130619"}, {"OBJECT_NAME": "0 STARLINK-31594", "OBJECT_ID": "59332", "TLE_LINE1": "1 59332U 24057N   26203.87717680 -.00007008  00000-0 -24524-3 0  9994", "TLE_LINE2": "2 59332  43.0016 154.9018 0001519 259.6149 100.4531 15.27597555130388"}, {"OBJECT_NAME": "0 STARLINK-31572", "OBJECT_ID": "59333", "TLE_LINE1": "1 59333U 24057P   26204.20672060 -.00000820  00000-0 -20282-4 0  9998", "TLE_LINE2": "2 59333  43.0020 153.0740 0001463 257.9918 102.0769 15.27570730130432"}, {"OBJECT_NAME": "0 STARLINK-31573", "OBJECT_ID": "59334", "TLE_LINE1": "1 59334U 24057Q   26204.88744201 -.00000976  00000-0 -25940-4 0  9998", "TLE_LINE2": "2 59334  43.0028 137.4742 0001275 267.6286  92.4420 15.27573268130677"}, {"OBJECT_NAME": "0 STARLINK-31588", "OBJECT_ID": "59335", "TLE_LINE1": "1 59335U 24057R   26204.82848497  .00000674  00000-0  34003-4 0  9998", "TLE_LINE2": "2 59335  43.0018 137.8949 0001038 269.9160  90.1573 15.27578581130669"}, {"OBJECT_NAME": "0 STARLINK-31596", "OBJECT_ID": "59336", "TLE_LINE1": "1 59336U 24057S   26204.83233935 -.00000256  00000-0  20468-6 0  9994", "TLE_LINE2": "2 59336  43.0011 137.9222 0001054 267.3106  92.7625 15.27570688130664"}, {"OBJECT_NAME": "0 STARLINK-31612", "OBJECT_ID": "59337", "TLE_LINE1": "1 59337U 24057T   26204.85546800 -.00002504  00000-0 -81489-4 0  9992", "TLE_LINE2": "2 59337  43.0029 138.0997 0000828 263.1895  96.8863 15.27581276130666"}, {"OBJECT_NAME": "0 STARLINK-31550", "OBJECT_ID": "59338", "TLE_LINE1": "1 59338U 24057U   26204.16190734  .00000206  00000-0  17014-4 0  9996", "TLE_LINE2": "2 59338  43.0031 142.3537 0001430 267.0628  93.0060 15.27579567130551"}, {"OBJECT_NAME": "0 STARLINK-31473", "OBJECT_ID": "59339", "TLE_LINE1": "1 59339U 24057V   26204.84390536 -.00000160  00000-0  36957-5 0  9992", "TLE_LINE2": "2 59339  42.9997 138.0090 0000312 280.7948  79.2869 15.27571077130665"}, {"OBJECT_NAME": "0 STARLINK-31562", "OBJECT_ID": "59340", "TLE_LINE1": "1 59340U 24057W   26204.93962792 -.00000602  00000-0 -12351-4 0  9996", "TLE_LINE2": "2 59340  43.0014 152.5888 0001082 265.8084  94.2644 15.27571015130508"}, {"OBJECT_NAME": "0 STARLINK-31600", "OBJECT_ID": "59341", "TLE_LINE1": "1 59341U 24057X   26203.99819186 -.00000218  00000-0  16143-5 0  9996", "TLE_LINE2": "2 59341  43.0014 150.6260 0001213 249.9993 110.0729 15.27577260130442"}, {"OBJECT_NAME": "0 STARLINK-31628", "OBJECT_ID": "59342", "TLE_LINE1": "1 59342U 24057Y   26204.53752442 -.00000409  00000-0 -53502-5 0  9992", "TLE_LINE2": "2 59342  43.0032 140.0140 0001015 275.2044  84.8692 15.27575593130615"}, {"OBJECT_NAME": "0 STARLINK-31605", "OBJECT_ID": "59348", "TLE_LINE1": "1 59348U 24060A   26205.00422304 -.00000118  00000-0  52484-5 0  9990", "TLE_LINE2": "2 59348  43.0001 199.3609 0001006 265.1626  94.9111 15.27571351130973"}, {"OBJECT_NAME": "0 STARLINK-31532", "OBJECT_ID": "59349", "TLE_LINE1": "1 59349U 24060B   26204.30665344 -.00002842  00000-0 -93798-4 0  9995", "TLE_LINE2": "2 59349  43.0008 213.9700 0001539 266.5043  93.5632 15.27570408130857"}, {"OBJECT_NAME": "0 STARLINK-31593", "OBJECT_ID": "59350", "TLE_LINE1": "1 59350U 24060C   26204.34247809 -.00000528  00000-0 -96553-5 0  9995", "TLE_LINE2": "2 59350  43.0022 213.3788 0000972 269.7861  90.2879 15.27576063130814"}, {"OBJECT_NAME": "0 STARLINK-31555", "OBJECT_ID": "59351", "TLE_LINE1": "1 59351U 24060D   26204.37974352 -.00000628  00000-0 -13301-4 0  9999", "TLE_LINE2": "2 59351  42.9994 213.6560 0001019 273.0507  87.0228 15.27574898130861"}, {"OBJECT_NAME": "0 STARLINK-31561", "OBJECT_ID": "59352", "TLE_LINE1": "1 59352U 24060E   26204.07837733 -.00001794  00000-0 -55731-4 0  9996", "TLE_LINE2": "2 59352  43.0029 214.8352 0001293 269.7101  90.3603 15.27559564130778"}, {"OBJECT_NAME": "0 STARLINK-31413", "OBJECT_ID": "59353", "TLE_LINE1": "1 59353U 24060F   26203.76555922  .00001934  00000-0  79759-4 0  9999", "TLE_LINE2": "2 59353  43.0027 216.7915 0001781 285.6664  74.3992 15.27589606130724"}, {"OBJECT_NAME": "0 STARLINK-31422", "OBJECT_ID": "59354", "TLE_LINE1": "1 59354U 24060G   26204.33620128  .00000211  00000-0  17209-4 0  9994", "TLE_LINE2": "2 59354  43.0023 214.1901 0001603 275.8959  84.1710 15.27575971130805"}, {"OBJECT_NAME": "0 STARLINK-31416", "OBJECT_ID": "59355", "TLE_LINE1": "1 59355U 24060H   26204.04895613 -.00000417  00000-0 -56279-5 0  9997", "TLE_LINE2": "2 59355  43.0003 215.4727 0001208 273.3859  86.6855 15.27573838130769"}, {"OBJECT_NAME": "0 STARLINK-31552", "OBJECT_ID": "59356", "TLE_LINE1": "1 59356U 24060J   26204.39773582 -.00000559  00000-0 -10804-4 0  9996", "TLE_LINE2": "2 59356  42.9991 213.8059 0000785 271.6021  88.4740 15.27574020130818"}, {"OBJECT_NAME": "0 STARLINK-31557", "OBJECT_ID": "59357", "TLE_LINE1": "1 59357U 24060K   26204.06471011  .00000974  00000-0  44919-4 0  9996", "TLE_LINE2": "2 59357  43.0019 211.2350 0001443 276.8948  83.1739 15.27570358130815"}, {"OBJECT_NAME": "0 STARLINK-31559", "OBJECT_ID": "59358", "TLE_LINE1": "1 59358U 24060L   26204.29638845 -.00002433  00000-0 -78953-4 0  9991", "TLE_LINE2": "2 59358  43.0028 213.8935 0002133 281.5130  78.5482 15.27560016130808"}, {"OBJECT_NAME": "0 STARLINK-31501", "OBJECT_ID": "59359", "TLE_LINE1": "1 59359U 24060M   26204.32463661 -.00001571  00000-0 -47592-4 0  9995", "TLE_LINE2": "2 59359  43.0009 214.1060 0001104 295.7489  64.3249 15.27577238130800"}, {"OBJECT_NAME": "0 STARLINK-31549", "OBJECT_ID": "59360", "TLE_LINE1": "1 59360U 24060N   26205.00405400  .00000063  00000-0  11810-4 0  9997", "TLE_LINE2": "2 59360  43.0021 209.7454 0001079 272.9156  87.1572 15.27574050130915"}, {"OBJECT_NAME": "0 STARLINK-31560", "OBJECT_ID": "59361", "TLE_LINE1": "1 59361U 24060P   26204.31821083  .00000502  00000-0  27740-4 0  9997", "TLE_LINE2": "2 59361  42.9973 214.0493 0000344 251.7121 108.3693 15.27577628130805"}, {"OBJECT_NAME": "0 STARLINK-31571", "OBJECT_ID": "59362", "TLE_LINE1": "1 59362U 24060Q   26204.38619689 -.00003921  00000-0 -13319-3 0  9998", "TLE_LINE2": "2 59362  43.0004 213.7017 0001270 277.5482  82.5226 15.27547101130815"}, {"OBJECT_NAME": "0 STARLINK-31553", "OBJECT_ID": "59363", "TLE_LINE1": "1 59363U 24060R   26204.04863765 -.00000870  00000-0 -22120-4 0  9999", "TLE_LINE2": "2 59363  43.0002 208.5368 0000961 267.9362  92.1380 15.27573845130846"}, {"OBJECT_NAME": "0 STARLINK-31547", "OBJECT_ID": "59364", "TLE_LINE1": "1 59364U 24060S   26204.29767049 -.00000544  00000-0 -10258-4 0  9992", "TLE_LINE2": "2 59364  42.9998 202.6499 0001074 273.2382  86.8347 15.27575667130934"}, {"OBJECT_NAME": "0 STARLINK-31537", "OBJECT_ID": "59365", "TLE_LINE1": "1 59365U 24060T   26203.47846503 -.00000284  00000-0 -77798-6 0  9990", "TLE_LINE2": "2 59365  43.0004 218.9279 0001424 273.1838  86.8851 15.27576355130671"}, {"OBJECT_NAME": "0 STARLINK-31451", "OBJECT_ID": "59366", "TLE_LINE1": "1 59366U 24060U   26205.00019998 -.00000095  00000-0  60757-5 0  9997", "TLE_LINE2": "2 59366  43.0023 209.7151 0001549 283.5823  76.4856 15.27570865130914"}, {"OBJECT_NAME": "0 STARLINK-31428", "OBJECT_ID": "59367", "TLE_LINE1": "1 59367U 24060V   26204.94637515  .00000137  00000-0  14509-4 0  9990", "TLE_LINE2": "2 59367  43.0023 210.1700 0001621 264.3659  95.7008 15.27571866130900"}]